IRIDIUM 171             
1 43929U 19002H   24346.73419991  .00000506  00000+0  17351-3 0  9991
2 43929  86.3997 224.6514 0001658  92.5395 267.5991 14.34219885309778
IRIDIUM 170             
1 43930U 19002J   24346.72365945  .00000452  00000+0  67768-4 0  9999
2 43930  86.6119 224.4443 0002279  82.6782 277.4694 14.72242881317973
IRIDIUM 167             
1 43931U 19002K   24346.58829886  .00000551  00000+0  18962-3 0  9994
2 43931  86.3988 224.4848 0001664  79.7211 280.4172 14.34225726309754
IRIDIUM 181             
1 56726U 23068S   24346.83458495  .00000806  00000+0  23216-3 0  9990
2 56726  86.6856 286.5920 0001976  93.9297 266.2130 14.43611821 82765
IRIDIUM 177             
1 56727U 23068T   24346.94985047  .00000139  00000+0  14735-4 0  9997
2 56727  86.1991 230.9384 0002073  76.5844 283.5608 14.80217036 84677
IRIDIUM 174             
1 56728U 23068U   24346.94443160  .00002282  00000+0  29680-3 0  9998
2 56728  86.1996 231.0584 0002177  94.0751 266.0719 14.80231144 84679
IRIDIUM 178             
1 56729U 23068V   24346.73617740  .00002923  00000+0  38103-3 0  9995
2 56729  86.5779 257.0222 0001914  98.3313 261.8126 14.80258802 84641
IRIDIUM 179             
1 56730U 23068W   24346.86597465  .00002815  00000+0  36683-3 0  9993
2 56730  86.6784 263.3392 0002314  89.6496 270.4991 14.80255605 84664
